STARLINK-36568
1 68017U 26040C   26092.83335647 -.01905468  00000+0 -28110-1 0  9999
2 68017  97.2855  42.4246 0001431  90.6453 233.5758 15.58663472  5991
STARLINK-36928
1 68020U 26040F   26092.83335647 -.01904419  00000+0 -28071-1 0  9994
2 68020  97.2855  42.4285 0001480  94.6007 237.9165 15.58682907  6008
